[{"OBJECT_NAME":"STARLINK-5997","OBJECT_ID":"2023-058L","EPOCH":"2026-03-09T22:07:15.421728","MEAN_MOTION":15.01261291,"ECCENTRICITY":0.00026875,"INCLINATION":97.6036,"RA_OF_ASC_NODE":70.4129,"ARG_OF_PERICENTER":87.471,"MEAN_ANOMALY":272.6822,"EPHEMERIS_TYPE":0,"CLASSIFICATION_TYPE":"U","NORAD_CAT_ID":56327,"ELEMENT_SET_NO":999,"REV_AT_EPOCH":15816,"BSTAR":-4.386509e-6,"MEAN_MOTION_DOT":-1.15e-6,"MEAN_MOTION_DDOT":0},{"OBJECT_NAME":"DELTA 1 DEB","OBJECT_ID":"1977-065CB","EPOCH":"2026-03-09T00:48:12.317760","MEAN_MOTION":13.97995904,"ECCENTRICITY":0.05328634,"INCLINATION":29.0786,"RA_OF_ASC_NODE":354.7404,"ARG_OF_PERICENTER":16.4646,"MEAN_ANOMALY":345.2542,"EPHEMERIS_TYPE":0,"CLASSIFICATION_TYPE":"U","NORAD_CAT_ID":10250,"ELEMENT_SET_NO":999,"REV_AT_EPOCH":29411,"BSTAR":0.0013731025,"MEAN_MOTION_DOT":6.972e-5,"MEAN_MOTION_DDOT":0}]
